ONEWEB-0363             
1 49289U 21090L   25061.35134493  .00000046  00000+0  81541-4 0  9992
2 49289  87.9316   8.3303 0001495  89.2405 270.8899 13.20770909168020
ONEWEB-0364             
1 49290U 21090M   25061.84376073  .00000012  00000+0 -19677-5 0  9996
2 49290  87.9321   8.2615 0001809  85.7751 274.3589 13.20769985170049
ONEWEB-0365             
1 49291U 21090N   25061.45463025  .00000041  00000+0  69489-4 0  9994
2 49291  87.9176  38.7115 0002020  83.6796 276.4567 13.19725560164202
ONEWEB-0366             
1 49292U 21090P   25061.42950246  .00000211  00000+0  53545-3 0  9992
2 49292  87.9050  23.5158 0001804  84.2722 275.8613 13.14505405165584
ONEWEB-0367             
1 49293U 21090Q   25061.34977130  .00000076  00000+0  15381-3 0  9990
2 49293  87.9318   8.3258 0001976  81.0630 279.0727 13.20771462167542
ONEWEB-0368             
1 49294U 21090R   25061.39869894  .00000118  00000+0  25914-3 0  9993
2 49294  87.9318   8.3484 0002182 103.5679 256.5697 13.20772287168708
ONEWEB-0369             
1 49295U 21090S   25061.82896071 -.00001102  00000+0 -27862-2 0  9998
2 49295  87.9185  38.6576 0002002  85.9102 274.2260 13.19729307165538
ONEWEB-0370             
1 49296U 21090T   25061.35923948 -.00000008  00000+0 -51174-4 0  9990
2 49296  87.9319   8.3289 0001955  69.6663 290.4680 13.20770298167580
